start=new Date('2022-09-25T00:00:00.000Z').valueOf();
sats=[{"NORAD_CAT_ID":"52350","GP_ID":"213406121","RCS_SIZE":"LARGE","EPHEMERIS_TYPE":"0","RA_OF_ASC_NODE":"103.8742","DECAY_DATE":null,"REF_FRAME":"TEME","OBJECT_ID":"2022-045V","ELEMENT_SET_NO":"999","APOAPSIS":"541.141","MEAN_MOTION_DDOT":"0.0000000000000","INCLINATION":"53.2185","COUNTRY_CODE":"US","REV_AT_EPOCH":"2528","MEAN_MOTION_DOT":"-0.00001337","TLE_LINE2":"2 52350  53.2185 103.8742 0002015  47.8246 312.2917 15.08839404 25289","FILE":"3582616","ECCENTRICITY":"0.00020150","SEMIMAJOR_AXIS":"6917.882","TIME_SYSTEM":"UTC","SITE":"AFETR","MEAN_ELEMENT_THEORY":"SGP4","PERIOD":"95.438","CENTER_NAME":"EARTH","ARG_OF_PERICENTER":"47.8246","MEAN_ANOMALY":"312.2917","PERIAPSIS":"538.353","LAUNCH_DATE":"2022-04-29","TLE_LINE1":"1 52350U 22045V   22267.82291420 -.00001337  00000-0 -65924-4 0  9991","EPOCH":"2022-09-24T19:44:59.786880","OBJECT_NAME":"STARLINK-3754","BSTAR":"-0.00006592400000","CLASSIFICATION_TYPE":"U","MEAN_MOTION":"15.08839404","OBJECT_TYPE":"PAYLOAD"},{"DECAY_DATE":null,"REF_FRAME":"TEME","MEAN_MOTION_DDOT":"0.0000000000000","APOAPSIS":"524.620","ELEMENT_SET_NO":"999","OBJECT_ID":"2022-045W","COUNTRY_CODE":"US","INCLINATION":"53.2175","GP_ID":"213406872","NORAD_CAT_ID":"52351","RCS_SIZE":"LARGE","EPHEMERIS_TYPE":"0","RA_OF_ASC_NODE":"103.7594","SITE":"AFETR","PERIAPSIS":"520.275","CENTER_NAME":"EARTH","PERIOD":"95.080","ARG_OF_PERICENTER":"32.3148","MEAN_ELEMENT_THEORY":"SGP4","MEAN_ANOMALY":"327.8039","EPOCH":"2022-09-24T19:38:48.380928","TLE_LINE1":"1 52351U 22045W   22267.81861552  .00209778  00000-0  10948-1 0  9990","OBJECT_NAME":"STARLINK-3816","LAUNCH_DATE":"2022-04-29","MEAN_MOTION":"15.14517006","OBJECT_TYPE":"PAYLOAD","BSTAR":"0.01094800000000","CLASSIFICATION_TYPE":"U","REV_AT_EPOCH":"2528","MEAN_MOTION_DOT":"0.00209778","ECCENTRICITY":"0.00031480","FILE":"3582616","TLE_LINE2":"2 52351  53.2175 103.7594 0003148  32.3148 327.8039 15.14517006 25286","SEMIMAJOR_AXIS":"6900.582","TIME_SYSTEM":"UTC"},{"PERIAPSIS":"538.551","PERIOD":"95.437","ARG_OF_PERICENTER":"54.1209","MEAN_ELEMENT_THEORY":"SGP4","CENTER_NAME":"EARTH","MEAN_ANOMALY":"305.9942","SITE":"AFETR","OBJECT_TYPE":"PAYLOAD","MEAN_MOTION":"15.08841625","CLASSIFICATION_TYPE":"U","BSTAR":"-0.00008075000000","OBJECT_NAME":"STARLINK-3838","TLE_LINE1":"1 52352U 22045X   22267.81186192 -.00001573  00000-0 -80750-4 0  9997","EPOCH":"2022-09-24T19:29:04.869888","LAUNCH_DATE":"2022-04-29","MEAN_MOTION_DOT":"-0.00001573","REV_AT_EPOCH":"2528","TIME_SYSTEM":"UTC","SEMIMAJOR_AXIS":"6917.875","ECCENTRICITY":"0.00017190","FILE":"3582616","TLE_LINE2":"2 52352  53.2192 103.9210 0001719  54.1209 305.9942 15.08841625 25285","REF_FRAME":"TEME","DECAY_DATE":null,"COUNTRY_CODE":"US","INCLINATION":"53.2192","APOAPSIS":"540.930","MEAN_MOTION_DDOT":"0.0000000000000","ELEMENT_SET_NO":"999","OBJECT_ID":"2022-045X","EPHEMERIS_TYPE":"0","RCS_SIZE":"LARGE","GP_ID":"213405120","NORAD_CAT_ID":"52352","RA_OF_ASC_NODE":"103.9210"},{"DECAY_DATE":null,"REF_FRAME":"TEME","OBJECT_ID":"2022-045Y","ELEMENT_SET_NO":"999","APOAPSIS":"541.164","MEAN_MOTION_DDOT":"0.0000000000000","INCLINATION":"53.2198","COUNTRY_CODE":"US","NORAD_CAT_ID":"52353","GP_ID":"213405370","EPHEMERIS_TYPE":"0","RCS_SIZE":"LARGE","RA_OF_ASC_NODE":"103.8866","SITE":"AFETR","PERIOD":"95.438","ARG_OF_PERICENTER":"43.8119","CENTER_NAME":"EARTH","MEAN_ELEMENT_THEORY":"SGP4","MEAN_ANOMALY":"316.3034","PERIAPSIS":"538.354","LAUNCH_DATE":"2022-04-29","OBJECT_NAME":"STARLINK-3807","TLE_LINE1":"1 52353U 22045Y   22267.81922745 -.00000241  00000-0  29600-5 0  9998","EPOCH":"2022-09-24T19:39:41.251680","CLASSIFICATION_TYPE":"U","BSTAR":"0.00000296000000","OBJECT_TYPE":"PAYLOAD","MEAN_MOTION":"15.08835628","MEAN_MOTION_DOT":"-0.00000241","REV_AT_EPOCH":"2528","TLE_LINE2":"2 52353  53.2198 103.8866 0002031  43.8119 316.3034 15.08835628 25285","FILE":"3582616","ECCENTRICITY":"0.00020310","TIME_SYSTEM":"UTC","SEMIMAJOR_AXIS":"6917.894"},{"SITE":"AFETR","MEAN_ANOMALY":"314.7774","PERIOD":"95.438","MEAN_ELEMENT_THEORY":"SGP4","ARG_OF_PERICENTER":"45.3386","CENTER_NAME":"EARTH","PERIAPSIS":"538.324","LAUNCH_DATE":"2022-04-29","TLE_LINE1":"1 52354U 22045Z   22267.86707708 -.00000114  00000-0  10969-4 0  9990","EPOCH":"2022-09-24T20:48:35.459712","OBJECT_NAME":"STARLINK-3876","BSTAR":"0.00001096900000","CLASSIFICATION_TYPE":"U","MEAN_MOTION":"15.08838726","OBJECT_TYPE":"PAYLOAD","REV_AT_EPOCH":"2529","MEAN_MOTION_DOT":"-0.00000114","FILE":"3582616","TLE_LINE2":"2 52354  53.2188 103.6584 0002061  45.3386 314.7774 15.08838726 25292","ECCENTRICITY":"0.00020610","SEMIMAJOR_AXIS":"6917.884","TIME_SYSTEM":"UTC","DECAY_DATE":null,"REF_FRAME":"TEME","ELEMENT_SET_NO":"999","OBJECT_ID":"2022-045Z","APOAPSIS":"541.175","MEAN_MOTION_DDOT":"0.0000000000000","INCLINATION":"53.2188","COUNTRY_CODE":"US","NORAD_CAT_ID":"52354","GP_ID":"213406622","RCS_SIZE":"LARGE","EPHEMERIS_TYPE":"0","RA_OF_ASC_NODE":"103.6584"},{"RA_OF_ASC_NODE":"103.8999","GP_ID":"213406372","NORAD_CAT_ID":"52355","RCS_SIZE":"LARGE","EPHEMERIS_TYPE":"0","MEAN_MOTION_DDOT":"0.0000000000000","APOAPSIS":"540.821","OBJECT_ID":"2022-045AA","ELEMENT_SET_NO":"999","COUNTRY_CODE":"US","INCLINATION":"53.2192","REF_FRAME":"TEME","DECAY_DATE":null,"ECCENTRICITY":"0.00015880","TLE_LINE2":"2 52355  53.2192 103.8999 0001588  56.6375 303.4769 15.08847660 25281","FILE":"3582616","SEMIMAJOR_AXIS":"6917.857","TIME_SYSTEM":"UTC","REV_AT_EPOCH":"2528","MEAN_MOTION_DOT":"0.00000136","TLE_LINE1":"1 52355U 22045AA  22267.81554633  .00000136  00000-0  26621-4 0  9998","EPOCH":"2022-09-24T19:34:23.202912","OBJECT_NAME":"STARLINK-3877","LAUNCH_DATE":"2022-04-29","MEAN_MOTION":"15.08847660","OBJECT_TYPE":"PAYLOAD","BSTAR":"0.00002662100000","CLASSIFICATION_TYPE":"U","SITE":"AFETR","PERIAPSIS":"538.623","PERIOD":"95.437","CENTER_NAME":"EARTH","MEAN_ELEMENT_THEORY":"SGP4","ARG_OF_PERICENTER":"56.6375","MEAN_ANOMALY":"303.4769"},{"EPOCH":"2022-09-24T20:49:57.715968","TLE_LINE1":"1 52356U 22045AB  22267.86802912  .00000704  00000-0  62302-4 0  9997","OBJECT_NAME":"STARLINK-3801","LAUNCH_DATE":"2022-04-29","MEAN_MOTION":"15.08840274","OBJECT_TYPE":"PAYLOAD","BSTAR":"0.00006230200000","CLASSIFICATION_TYPE":"U","SITE":"AFETR","PERIAPSIS":"538.560","PERIOD":"95.438","MEAN_ELEMENT_THEORY":"SGP4","ARG_OF_PERICENTER":"57.5149","CENTER_NAME":"EARTH","MEAN_ANOMALY":"302.6008","ECCENTRICITY":"0.00017120","TLE_LINE2":"2 52356  53.2193 103.6466 0001712  57.5149 302.6008 15.08840274 25290","FILE":"3582554","SEMIMAJOR_AXIS":"6917.880","TIME_SYSTEM":"UTC","REV_AT_EPOCH":"2529","MEAN_MOTION_DOT":"0.00000704","MEAN_MOTION_DDOT":"0.0000000000000","APOAPSIS":"540.929","OBJECT_ID":"2022-045AB","ELEMENT_SET_NO":"999","COUNTRY_CODE":"US","INCLINATION":"53.2193","DECAY_DATE":null,"REF_FRAME":"TEME","RA_OF_ASC_NODE":"103.6466","GP_ID":"213381751","NORAD_CAT_ID":"52356","RCS_SIZE":"LARGE","EPHEMERIS_TYPE":"0"},{"EPHEMERIS_TYPE":"0","RCS_SIZE":"LARGE","GP_ID":"213405871","NORAD_CAT_ID":"52357","RA_OF_ASC_NODE":"103.9308","DECAY_DATE":null,"REF_FRAME":"TEME","COUNTRY_CODE":"US","INCLINATION":"53.2190","MEAN_MOTION_DDOT":"0.0000000000000","APOAPSIS":"541.052","OBJECT_ID":"2022-045AC","ELEMENT_SET_NO":"999","MEAN_MOTION_DOT":"0.00000205","REV_AT_EPOCH":"2528","TIME_SYSTEM":"UTC","SEMIMAJOR_AXIS":"6917.903","ECCENTRICITY":"0.00018570","TLE_LINE2":"2 52357  53.2190 103.9308 0001857  58.0031 302.1142 15.08832734 25287","FILE":"3582616","PERIAPSIS":"538.483","PERIOD":"95.438","MEAN_ELEMENT_THEORY":"SGP4","ARG_OF_PERICENTER":"58.0031","CENTER_NAME":"EARTH","MEAN_ANOMALY":"302.1142","SITE":"AFETR","OBJECT_TYPE":"PAYLOAD","MEAN_MOTION":"15.08832734","CLASSIFICATION_TYPE":"U","BSTAR":"0.00003097200000","OBJECT_NAME":"STARLINK-3821","TLE_LINE1":"1 52357U 22045AC  22267.80819681  .00000205  00000-0  30972-4 0  9997","EPOCH":"2022-09-24T19:23:48.204384","LAUNCH_DATE":"2022-04-29"},{"EPOCH":"2022-09-24T20:32:41.395488","TLE_LINE1":"1 52358U 22045AD  22267.85603467  .00001382  00000-0  10492-3 0  9997","OBJECT_NAME":"STARLINK-3837","LAUNCH_DATE":"2022-04-29","MEAN_MOTION":"15.08835362","OBJECT_TYPE":"PAYLOAD","BSTAR":"0.00010492000000","CLASSIFICATION_TYPE":"U","SITE":"AFETR","PERIAPSIS":"538.343","PERIOD":"95.438","CENTER_NAME":"EARTH","MEAN_ELEMENT_THEORY":"SGP4","MEAN_ANOMALY":"316.6037","ARG_OF_PERICENTER":"43.5116","ECCENTRICITY":"0.00020470","FILE":"3582554","TLE_LINE2":"2 52358  53.2195 103.7014 0002047  43.5116 316.6037 15.08835362 25294","SEMIMAJOR_AXIS":"6917.895","TIME_SYSTEM":"UTC","REV_AT_EPOCH":"2529","MEAN_MOTION_DOT":"0.00001382","MEAN_MOTION_DDOT":"0.0000000000000","APOAPSIS":"541.176","ELEMENT_SET_NO":"999","OBJECT_ID":"2022-045AD","COUNTRY_CODE":"US","INCLINATION":"53.2195","REF_FRAME":"TEME","DECAY_DATE":null,"RA_OF_ASC_NODE":"103.7014","GP_ID":"213381762","NORAD_CAT_ID":"52358","RCS_SIZE":"LARGE","EPHEMERIS_TYPE":"0"},{"MEAN_MOTION":"15.08843166","OBJECT_TYPE":"PAYLOAD","BSTAR":"0.00002266400000","CLASSIFICATION_TYPE":"U","TLE_LINE1":"1 52359U 22045AE  22267.80451122  .00000073  00000-0  22664-4 0  9993","EPOCH":"2022-09-24T19:18:29.769408","OBJECT_NAME":"STARLINK-3853","LAUNCH_DATE":"2022-04-29","PERIAPSIS":"538.452","PERIOD":"95.437","CENTER_NAME":"EARTH","MEAN_ELEMENT_THEORY":"SGP4","ARG_OF_PERICENTER":"46.2990","MEAN_ANOMALY":"313.8156","SITE":"AFETR","SEMIMAJOR_AXIS":"6917.871","TIME_SYSTEM":"UTC","ECCENTRICITY":"0.00018550","FILE":"3582616","TLE_LINE2":"2 52359  53.2194 103.9456 0001855  46.2990 313.8156 15.08843166 25283","REV_AT_EPOCH":"2528","MEAN_MOTION_DOT":"0.00000073","COUNTRY_CODE":"US","INCLINATION":"53.2194","APOAPSIS":"541.019","MEAN_MOTION_DDOT":"0.0000000000000","OBJECT_ID":"2022-045AE","ELEMENT_SET_NO":"999","REF_FRAME":"TEME","DECAY_DATE":null,"RA_OF_ASC_NODE":"103.9456","RCS_SIZE":"LARGE","EPHEMERIS_TYPE":"0","GP_ID":"213406873","NORAD_CAT_ID":"52359"}];
